STARLINK-30298          
1 57665U 23124C   26068.62010733 -.00001285  00000+0 -31256-4 0  9993
2 57665  53.1607 207.3888 0001425  95.3928 264.7235 15.30189614143552
GLOBAL-34               
1 68098U 26043A   26068.47466435  .00014018  00000+0  45822-3 0  9994
2 68098  42.0215  76.7399 0006884 289.2632  70.7460 15.31488019   538
